OBJECT_NAME,OBJECT_ID,EPOCH,MEAN_MOTION,ECCENTRICITY,INCLINATION,RA_OF_ASC_NODE,ARG_OF_PERICENTER,MEAN_ANOMALY,EPHEMERIS_TYPE,CLASSIFICATION_TYPE,NORAD_CAT_ID,ELEMENT_SET_NO,REV_AT_EPOCH,BSTAR,MEAN_MOTION_DOT,MEAN_MOTION_DDOT
STARLINK-37112,2026-081J,2026-07-14T08:28:03.505440,15.34398065,.00011154,53.1569,164.4859,88.9247,271.1884,0,U,68707,999,1415,.2621362E-3,.849E-4,0
STARLINK-37340,2026-081K,2026-07-14T09:58:49.471968,15.34395544,.00012808,53.1569,164.1560,88.7473,271.3676,0,U,68708,999,1416,.22325462E-3,.7173E-4,0
STARLINK-37303,2026-081L,2026-07-14T06:45:10.402560,15.34394182,.0001054,53.1565,164.7390,96.3879,263.7243,0,U,68709,999,1414,.3225804E-3,.10536E-3,0
STARLINK-36859,2026-081M,2026-07-14T05:08:21.001344,15.34397417,.0001166,53.1560,165.0307,84.2336,275.8800,0,U,68710,999,1413,.33646674E-3,.11008E-3,0
STARLINK-37320,2026-081N,2026-07-14T08:12:54.615456,15.34389233,.00012834,53.1572,164.4081,86.6130,273.5020,0,U,68711,999,1415,.39479478E-3,.12981E-3,0
STARLINK-37318,2026-081P,2026-07-14T08:09:52.311456,15.34414117,.00014236,53.1559,164.3965,70.4261,289.6895,0,U,68712,999,1415,.73443647E-3,.2453E-3,0
STARLINK-37305,2026-081Q,2026-07-14T08:06:50.828256,15.34406224,.00010609,53.1564,164.3731,88.0747,272.0377,0,U,68713,999,1415,.35647505E-3,.11689E-3,0
STARLINK-37225,2026-081R,2026-07-14T04:56:13.668864,15.34391378,.00010806,53.1568,164.9780,76.0222,284.0900,0,U,68714,999,1413,.62421522E-3,.20767E-3,0
STARLINK-37322,2026-081S,2026-07-14T03:19:23.884896,15.34385346,.00010097,53.1568,165.2597,85.3642,274.7475,0,U,68715,999,1412,.41360575E-3,.13617E-3,0
STARLINK-36337,2026-081T,2026-07-14T07:57:45.532800,15.34397655,.0001179,53.1581,164.3514,86.8720,273.2418,0,U,68716,999,1415,.27705004E-3,.8995E-4,0
STARLINK-36685,2026-081U,2026-07-14T07:54:43.462944,15.34380352,.00012327,53.1578,164.3231,73.7747,286.3392,0,U,68717,999,1415,.70722852E-3,.23579E-3,0
STARLINK-36684,2026-081V,2026-07-14T04:44:06.495360,15.34385082,.0001198,53.1575,164.9150,78.5147,281.5990,0,U,68718,999,1413,.65047666E-3,.21654E-3,0
STARLINK-36686,2026-081W,2026-07-14T09:19:26.212512,15.34416600,.00011462,53.1577,163.9760,86.8205,273.2929,0,U,68719,999,1416,.39824652E-3,.1311E-3,0
STARLINK-36681,2026-081X,2026-07-14T04:28:57.717696,15.34393432,.00018896,53.1584,164.8533,95.6424,264.4795,0,U,68720,999,1413,.30995166E-3,.10108E-3,0
STARLINK-36680,2026-081Y,2026-07-14T07:42:36.523584,15.34393927,.00012335,53.1568,164.2670,81.1920,278.9223,0,U,68721,999,1415,.28216233E-3,.9167E-4,0
STARLINK-37271,2026-081Z,2026-07-14T04:31:59.066976,15.34393595,.00003595,53.1573,164.8591,52.8757,307.2279,0,U,68722,999,1413,.29425367E-3,.9577E-4,0
STARLINK-37273,2026-081AA,2026-07-14T09:22:27.734592,15.34395048,.00013912,53.1570,163.9972,83.3380,276.7781,0,U,68723,999,1416,.27028832E-3,.8765E-4,0
STARLINK-37274,2026-081AB,2026-07-14T07:33:31.041504,15.34386275,.00015551,53.1577,164.2217,83.6709,276.4470,0,U,68724,999,1415,.30898176E-3,.10073E-3,0
STARLINK-37275,2026-081AC,2026-07-14T07:27:27.630144,15.34396398,.00008546,53.1581,164.2166,109.4488,250.6607,0,U,68725,999,1415,.42040833E-3,.13853E-3,0
STARLINK-37272,2026-081AD,2026-07-14T07:30:29.268000,15.34397325,.00009636,53.1578,164.2105,85.5265,274.5848,0,U,68726,999,1415,.32727154E-3,.10696E-3,0
STARLINK-37270,2026-081AE,2026-07-14T07:24:25.882560,15.34395231,.00013033,53.1586,164.1997,71.4399,288.6745,0,U,68727,999,1415,.45509668E-3,.15028E-3,0
STARLINK-37242,2026-082A,2026-07-14T15:01:45.298272,15.33445334,.00017628,97.2850,58.7370,99.8662,260.2780,0,U,68728,999,1390,.26009183E-3,.8331E-4,0
STARLINK-37264,2026-082B,2026-07-14T13:55:11.534304,15.33451802,.00017518,97.2851,58.6446,89.5986,270.5458,0,U,68729,999,1389,.42116406E-3,.13549E-3,0
STARLINK-37230,2026-082C,2026-07-14T14:46:06.660768,15.33432561,.00017626,97.2849,58.7551,90.1401,270.0043,0,U,68730,999,1390,.31686713E-3,.10165E-3,0
STARLINK-37202,2026-082D,2026-07-14T13:59:06.716832,15.33445460,.00023639,97.2853,58.6450,101.1071,259.0438,0,U,68731,999,1389,.25974152E-3,.832E-4,0
STARLINK-37167,2026-082E,2026-07-14T14:03:03.616128,15.33432675,.00014747,97.2856,58.6392,93.0444,267.0967,0,U,68732,999,1389,.29998592E-3,.9618E-4,0
STARLINK-37278,2026-082F,2026-07-14T14:06:56.689632,15.33441945,.00018407,97.2845,58.7893,95.7400,264.4053,0,U,68733,999,1390,.13817018E-3,.4388E-4,0
STARLINK-37349,2026-082G,2026-07-14T14:26:31.145568,15.33435910,.00020613,97.2849,58.7712,97.6895,262.4582,0,U,68734,999,1390,.15097917E-3,.4801E-4,0
STARLINK-37339,2026-082H,2026-07-14T14:22:36.209280,15.33437257,.00012465,97.2853,58.7723,70.7060,289.4318,0,U,68735,999,1390,-.33306861E-4,-.115E-4,0
STARLINK-37327,2026-082J,2026-07-14T13:47:21.131232,15.33452297,.00020373,97.2849,58.6546,93.5053,266.6423,0,U,68736,999,1389,.2714619E-3,.8701E-4,0
