STARLINK-37112          
1 68707U 26081J   26195.35281835  .00008490  00000+0  26214-3 0  9991
2 68707  53.1569 164.4859 0001115  88.9247 271.1884 15.34398065 14158
STARLINK-37340          
1 68708U 26081K   26195.41585037  .00007173  00000+0  22325-3 0  9996
2 68708  53.1569 164.1560 0001280  88.7473 271.3676 15.34395544 14168
STARLINK-37303          
1 68709U 26081L   26195.28137040  .00010536  00000+0  32258-3 0  9992
2 68709  53.1565 164.7390 0001054  96.3879 263.7243 15.34394182 14146
STARLINK-36859          
1 68710U 26081M   26195.21413196  .00011008  00000+0  33647-3 0  9994
2 68710  53.1560 165.0307 0001166  84.2336 275.8800 15.34397417 14139
STARLINK-37320          
1 68711U 26081N   26195.34229879  .00012981  00000+0  39479-3 0  9992
2 68711  53.1572 164.4081 0001283  86.6130 273.5020 15.34389233 14151
STARLINK-37318          
1 68712U 26081P   26195.34018879  .00024530  00000+0  73444-3 0  9992
2 68712  53.1559 164.3965 0001423  70.4261 289.6895 15.34414117 14157
STARLINK-37305          
1 68713U 26081Q   26195.33808829  .00011689  00000+0  35648-3 0  9999
2 68713  53.1564 164.3731 0001060  88.0747 272.0377 15.34406224 14157
STARLINK-37225          
1 68714U 26081R   26195.20571376  .00020767  00000+0  62422-3 0  9997
2 68714  53.1568 164.9780 0001080  76.0222 284.0900 15.34391378 14135
STARLINK-37322          
1 68715U 26081S   26195.13847089  .00013617  00000+0  41361-3 0  9992
2 68715  53.1568 165.2597 0001009  85.3642 274.7475 15.34385346 14126
STARLINK-36337          
1 68716U 26081T   26195.33177700  .00008995  00000+0  27705-3 0  9990
2 68716  53.1581 164.3514 0001179  86.8720 273.2418 15.34397655 14152
STARLINK-36685          
1 68717U 26081U   26195.32966971  .00023579  00000+0  70723-3 0  9999
2 68717  53.1578 164.3231 0001232  73.7747 286.3392 15.34380352 14151
STARLINK-36684          
1 68718U 26081V   26195.19729740  .00021654  00000+0  65048-3 0  9992
2 68718  53.1575 164.9150 0001198  78.5147 281.5990 15.34385082 14137
STARLINK-36686          
1 68719U 26081W   26195.38849783  .00013110  00000+0  39825-3 0  9996
2 68719  53.1577 163.9760 0001146  86.8205 273.2929 15.34416600 14160
STARLINK-36681          
1 68720U 26081X   26195.18677914  .00010108  00000+0  30995-3 0  9994
2 68720  53.1584 164.8533 0001889  95.6424 264.4795 15.34393432 14130
STARLINK-36680          
1 68721U 26081Y   26195.32125606  .00009167  00000+0  28216-3 0  9993
2 68721  53.1568 164.2670 0001233  81.1920 278.9223 15.34393927 14150
STARLINK-37271          
1 68722U 26081Z   26195.18887809  .00009577  00000+0  29425-3 0  9996
2 68722  53.1573 164.8591 0000359  52.8757 307.2279 15.34393595 14132
STARLINK-37273          
1 68723U 26081AA  26195.39059878  .00008765  00000+0  27029-3 0  9993
2 68723  53.1570 163.9972 0001391  83.3380 276.7781 15.34395048 14167
STARLINK-37274          
1 68724U 26081AB  26195.31494261  .00010073  00000+0  30898-3 0  9998
2 68724  53.1577 164.2217 0001555  83.6709 276.4470 15.34386275 14154
STARLINK-37275          
1 68725U 26081AC  26195.31073646  .00013853  00000+0  42041-3 0  9991
2 68725  53.1581 164.2166 0000854 109.4488 250.6607 15.34396398 14158
STARLINK-37272          
1 68726U 26081AD  26195.31283875  .00010696  00000+0  32727-3 0  9991
2 68726  53.1578 164.2105 0000963  85.5265 274.5848 15.34397325 14159
STARLINK-37270          
1 68727U 26081AE  26195.30863290  .00015028  00000+0  45510-3 0  9994
2 68727  53.1586 164.1997 0001303  71.4399 288.6745 15.34395231 14154
STARLINK-37242          
1 68728U 26082A   26195.62621873  .00008331  00000+0  26009-3 0  9991
2 68728  97.2850  58.7370 0001762  99.8662 260.2780 15.33445334 13903
STARLINK-37264          
1 68729U 26082B   26195.57999461  .00013549  00000+0  42116-3 0  9991
2 68729  97.2851  58.6446 0001751  89.5986 270.5458 15.33451802 13892
STARLINK-37230          
1 68730U 26082C   26195.61535487  .00010165  00000+0  31687-3 0  9994
2 68730  97.2849  58.7551 0001762  90.1401 270.0043 15.33432561 13909
STARLINK-37202          
1 68731U 26082D   26195.58271663  .00008320  00000+0  25974-3 0  9996
2 68731  97.2853  58.6450 0002363 101.1071 259.0438 15.33445460 13891
STARLINK-37167          
1 68732U 26082E   26195.58545852  .00009618  00000+0  29999-3 0  9993
2 68732  97.2856  58.6392 0001474  93.0444 267.0967 15.33432675 13895
STARLINK-37278          
1 68733U 26082F   26195.58815613  .00004388  00000+0  13817-3 0  9990
2 68733  97.2845  58.7893 0001840  95.7400 264.4053 15.33441945 13908
STARLINK-37349          
1 68734U 26082G   26195.60174937  .00004801  00000+0  15098-3 0  9994
2 68734  97.2849  58.7712 0002061  97.6895 262.4582 15.33435910 13908
STARLINK-37339          
1 68735U 26082H   26195.59903020 -.00001150  00000+0 -33307-4 0  9996
2 68735  97.2853  58.7723 0001246  70.7060 289.4318 15.33437257 13908
STARLINK-37327          
1 68736U 26082J   26195.57455013  .00008701  00000+0  27146-3 0  9999
2 68736  97.2849  58.6546 0002037  93.5053 266.6423 15.33452297 13893
